CYGNUS NG-23            
1 65616U 25208A   25343.50984768  .00014141  00000+0  26026-3 0  9994
2 65616  51.6310 158.4724 0003400 223.8185 136.2534 15.49447168   226
DRAGONFLY               
1 65729U 98067XH  25343.49474648  .00190953  00000+0  14915-2 0  9990
2 65729  51.6245 152.3636 0006537 255.9884 104.0387 15.70499103 12658
1998-067XK              
1 65731U 98067XK  25343.47826445  .00113689  00000+0  11288-2 0  9998
2 65731  51.6282 153.7695 0005245 225.0581 134.9989 15.64890010 12632
RSP-03                  
1 65732U 98067XL  25343.87137279  .00152975  00000+0  13517-2 0  9991
2 65732  51.6264 151.1351 0006032 231.1748 128.8710 15.67636540 12714
GHS-01                  
1 65733U 98067XM  25343.76966235  .00225395  00000+0  15642-2 0  9990
2 65733  51.6282 150.4557 0006938 260.0742  99.9474 15.73188946 12719
YOTSUBA-KULOVER         
1 65941U 98067XN  25343.50792527  .00080950  00000+0  10221-2 0  9998
2 65941  51.6274 156.2142 0001612 216.6617 143.4266 15.58849812  9356
BOTAN                   
1 65942U 98067XP  25343.52026374  .00124109  00000+0  13805-2 0  9997
2 65942  51.6280 155.5477 0003500 212.8190 147.2587 15.61959609  9368
E-KAGAKU-1              
1 65943U 98067XQ  25342.73860951  .00067115  00000+0  85625-3 0  9990
2 65943  51.6297 160.0822 0002977 178.8942 181.2057 15.58651727  9237
HRC MONOBLOCK CAMERA    
1 66052U 98067XR  25344.07885491  .00046287  00000+0  70943-3 0  9991
2 66052  51.6293 154.7720 0003676 173.0963 187.0078 15.53848796  8425
HTV-X1                  
1 66174U 25241A   25343.50984768  .00014141  00000+0  26026-3 0  9991
2 66174  51.6310 158.4724 0003400 223.8185 136.2534 15.49447168   518
SZ-21 MODULE            
1 66515U 25246C   25344.17413833  .00033821  00000+0  37413-3 0  9997
2 66515  41.4772  31.6946 0006304 246.4394 113.5783 15.62287681  4046
SHENZHOU-22             
1 66645U 25272A   25343.57586176  .00032682  00000+0  41053-3 0  9993
2 66645  41.4682  35.9133 0008959   5.1145 354.9784 15.58965688263007
